TDRS 13                 
1 42915U 17047A   26182.86748546 -.00000090  00000+0  00000+0 0  9995
2 42915   3.4550   3.0809 0015164 108.6692 109.0457  1.00272589 32497
QZS-3 (MICHIBIKI-3)     
1 42917U 17048A   26182.89486932 -.00000338  00000+0  00000+0 0  9994
2 42917   0.0756 136.3690 0002263 322.1722 270.5824  1.00269344 32409
AMAZONAS 5              
1 42934U 17053A   26180.57634279 -.00000271  00000+0  00000+0 0  9997
2 42934   0.0312 327.8909 0001878  96.5276 359.7120  1.00270165 32168
ASIASAT 9               
1 42942U 17057A   26181.70252964  .00000000  00000+0  00000+0 0  9992
2 42942   0.0442  61.5216 0002504  30.1213 202.2028  1.00269722 31992
INTELSAT 37E (IS-37E)   
1 42950U 17059A   26182.94605882  .00000000  00000+0  00000+0 0  9991
2 42950   0.0249  41.7932 0002868  60.8717 139.9086  1.00270548 32217
BSAT-4A                 
1 42951U 17059B   26182.93837066 -.00000340  00000+0  00000+0 0  9990
2 42951   0.0422  32.2541 0004011  43.5157 291.8646  1.00271685 31942
QZS-4 (MICHIBIKI-4)     
1 42965U 17062A   26181.32690646 -.00000331  00000+0  00000+0 0  9992
2 42965  40.1009 343.3188 0746709 268.3129 282.6055  1.00295775 31936
SES-11 (ECHOSTAR 105)   
1 42967U 17063A   26182.92024943 -.00000079  00000+0  00000+0 0  9992
2 42967   0.0215 328.5299 0002954 130.8797  46.9034  1.00271681 31872
KOREASAT 5A             
1 42984U 17067A   26182.91749186 -.00000348  00000+0  00000+0 0  9996
2 42984   0.0270 297.1801 0000934 152.1067 274.1168  1.00269432 31677
ALCOMSAT 1              
1 43039U 17078A   26182.79354951 -.00000176  00000+0  00000+0 0  9997
2 43039   0.0166  51.2791 0002588  44.6089  84.8208  1.00270824 31449
SBIRS GEO-3 (USA 282)   
1 43162U 18009A   26182.83813779  .00000138  00000+0  00000+0 0  9999
2 43162   2.1939  12.7689 0002268  82.7573 326.6936  1.00272695 30993
AL YAH 3                
1 43174U 18012A   26182.86575213 -.00000146  00000+0  00000+0 0  9997
2 43174   1.5877  82.9467 0004109  15.3972 113.1257  1.00271377 30995
SES-14                  
1 43175U 18012B   26182.50382962 -.00000268  00000+0  00000+0 0  9991
2 43175   0.0155  28.9013 0001245  70.4848 314.0478  1.00270724  7163
GOES 17                 
1 43226U 18022A   26182.92328278 -.00000173  00000+0  00000+0 0  9990
2 43226   0.9725  85.4803 0000737  39.6239  37.7514  1.00271957 30573
HISPASAT 30W-6          
1 43228U 18023A   26182.50703630 -.00000205  00000+0  00000+0 0  9992
2 43228   0.0435  45.5857 0005902  35.0626 351.4441  1.00272912 30543
SUPERBIRD-B3            
1 43271U 18033A   26182.90162935 -.00000082  00000+0  00000+0 0  9995
2 43271   0.0166   9.0268 0001219  91.0489 306.4713  1.00272325 30202
HYLAS 4                 
1 43272U 18033B   26182.79181618  .00000000  00000+0  00000+0 0  9991
2 43272   0.0218  28.8267 0000843 105.9858  36.5746  1.00271724 30216
IRNSS-1I                
1 43286U 18035A   26179.79558490  .00000066  00000+0  00000+0 0  9992
2 43286  28.7805  74.0157 0017671 182.6115   1.5908  1.00277388 30197
USA 283                 
1 43339U 18036A   26182.46854735  .00000000  00000+0  00000+0 0  9999
2 43339   0.0077  35.3198 0000064   9.2412 177.7500  1.00269042 25430
COSMOS 2526             
1 43432U 18037A   26181.68313230 -.00000333  00000+0  00000+0 0  9997
2 43432   0.0324  68.9170 0000318 293.2676 290.5648  1.00282126 30093
APSTAR-6C               
1 43450U 18041A   26181.68434565 -.00000307  00000+0  00000+0 0  9998
2 43450   0.0446 304.3996 0000393  88.0346 266.6778  1.00270860 29940
BANGABANDHUSAT-1        
1 43463U 18044A   26182.96453182 -.00000352  00000+0  00000+0 0  9993
2 43463   0.0252  88.2885 0002072  12.5906 285.4573  1.00274182 29857
SES-12                  
1 43488U 18049A   26182.78844128 -.00000259  00000+0  00000+0 0  9995
2 43488   0.0107  10.1297 0000379 259.6240  28.9230  1.00272306 29561
FENGYUN 2H              
1 43491U 18050A   26182.95673178 -.00000120  00000+0  00000+0 0  9992
2 43491   3.0678  78.9082 0001768 121.3970 143.4229  1.00269567 29581
BEIDOU-2 IGSO-7         
1 43539U 18057A   26182.89122331 -.00000033  00000+0  00000+0 0  9998
2 43539  55.1981 162.9292 0104946 237.8611 308.6338  1.00246939 29273
TELSTAR 19V             
1 43562U 18059A   26182.92848279 -.00000269  00000+0  00000+0 0  9997
2 43562   0.0278 138.5084 0003102 341.7925  70.9219  1.00270400 29299
TELKOM 4 (MERAH PUTIH)  
1 43587U 18064A   26182.94058352 -.00000333  00000+0  00000+0 0  9999
2 43587   0.0167 331.0521 0001774 158.4862 237.0531  1.00271047 29027
TELSTAR 18V             
1 43611U 18069A   26181.97026081 -.00000283  00000+0  00000+0 0  9992
2 43611   0.0175 302.5030 0002215 152.1071 311.7084  1.00273522 28770
AZERSPACE 2 (IS-38)     
1 43632U 18074A   26182.87861663  .00000000  00000+0  00000+0 0  9990
2 43632   0.0251  37.4253 0001621  69.9767 173.9332  1.00270392 28592
HORIZONS-3E             
1 43633U 18074B   26182.68930755 -.00000020  00000+0  00000+0 0  9992
2 43633   0.0225 196.8409 0000564  90.6373  49.4249  1.00271639 28483
AEHF-4 (USA 288)        
1 43651U 18079A   26182.95787659 -.00000264  00000+0  00000+0 0  9990
2 43651   1.4366   5.1742 0059816 355.5887 196.4950  1.00268100 28440
BEIDOU-3 G1             
1 43683U 18085A   26182.90136935 -.00000101  00000+0  00000+0 0  9992
2 43683   2.9042  96.9835 0008559 353.1135 314.2609  1.00271059 28203
