OBJECT_NAME,OBJECT_ID,EPOCH,MEAN_MOTION,ECCENTRICITY,INCLINATION,RA_OF_ASC_NODE,ARG_OF_PERICENTER,MEAN_ANOMALY,EPHEMERIS_TYPE,CLASSIFICATION_TYPE,NORAD_CAT_ID,ELEMENT_SET_NO,REV_AT_EPOCH,BSTAR,MEAN_MOTION_DOT,MEAN_MOTION_DDOT
TDRS 13,2017-047A,2026-07-01T20:49:10.743744,1.00272589,.00151642,3.4550,3.0809,108.6692,109.0457,0,U,42915,999,3249,0,-.9E-6,0
QZS-3 (MICHIBIKI-3),2017-048A,2026-07-01T21:28:36.709248,1.00269344,.00022632,0.0756,136.3690,322.1722,270.5824,0,U,42917,999,3240,0,-.338E-5,0
AMAZONAS 5,2017-053A,2026-06-29T13:49:56.017056,1.00270165,.00018781,0.0312,327.8909,96.5276,359.7120,0,U,42934,999,3216,0,-.271E-5,0
ASIASAT 9,2017-057A,2026-06-30T16:51:38.560896,1.00269722,.00025049,0.0442,61.5216,30.1213,202.2028,0,U,42942,999,3199,0,0,0
INTELSAT 37E (IS-37E),2017-059A,2026-07-01T22:42:19.482048,1.00270548,.00028687,0.0249,41.7932,60.8717,139.9086,0,U,42950,999,3221,0,0,0
BSAT-4A,2017-059B,2026-07-01T22:31:15.225024,1.00271685,.00040114,0.0422,32.2541,43.5157,291.8646,0,U,42951,999,3194,0,-.34E-5,0
QZS-4 (MICHIBIKI-4),2017-062A,2026-06-30T07:50:44.718144,1.00295775,.07467097,40.1009,343.3188,268.3129,282.6055,0,U,42965,999,3193,0,-.331E-5,0
SES-11 (ECHOSTAR 105),2017-063A,2026-07-01T22:05:09.550752,1.00271681,.0002954,0.0215,328.5299,130.8797,46.9034,0,U,42967,999,3187,0,-.79E-6,0
KOREASAT 5A,2017-067A,2026-07-01T22:01:11.296704,1.00269432,.00009347,0.0270,297.1801,152.1067,274.1168,0,U,42984,999,3167,0,-.348E-5,0
ALCOMSAT 1,2017-078A,2026-07-01T19:02:42.677664,1.00270824,.00025884,0.0166,51.2791,44.6089,84.8208,0,U,43039,999,3144,0,-.176E-5,0
SBIRS GEO-3 (USA 282),2018-009A,2026-07-01T20:06:55.105056,1.00272695,.00022682,2.1939,12.7689,82.7573,326.6936,0,U,43162,999,3099,0,.138E-5,0
AL YAH 3,2018-012A,2026-07-01T20:46:40.984032,1.00271377,.00041095,1.5877,82.9467,15.3972,113.1257,0,U,43174,999,3099,0,-.146E-5,0
SES-14,2018-012B,2026-07-01T12:05:30.879168,1.00270724,.00012457,0.0155,28.9013,70.4848,314.0478,0,U,43175,999,716,0,-.268E-5,0
GOES 17,2018-022A,2026-07-01T22:09:31.632192,1.00271957,.00007375,0.9725,85.4803,39.6239,37.7514,0,U,43226,999,3057,0,-.173E-5,0
HISPASAT 30W-6,2018-023A,2026-07-01T12:10:07.936320,1.00272912,.00059023,0.0435,45.5857,35.0626,351.4441,0,U,43228,999,3054,0,-.205E-5,0
SUPERBIRD-B3,2018-033A,2026-07-01T21:38:20.775840,1.00272325,.00012191,0.0166,9.0268,91.0489,306.4713,0,U,43271,999,3020,0,-.82E-6,0
HYLAS 4,2018-033B,2026-07-01T19:00:12.917952,1.00271724,.00008435,0.0218,28.8267,105.9858,36.5746,0,U,43272,999,3021,0,0,0
IRNSS-1I,2018-035A,2026-06-28T19:05:38.535360,1.00277388,.0017671,28.7805,74.0157,182.6115,1.5908,0,U,43286,999,3019,0,.66E-6,0
USA 283,2018-036A,2026-07-01T11:14:42.491040,1.00269042,.0000064,0.0077,35.3198,9.2412,177.7500,0,U,43339,999,2543,0,0,0
COSMOS 2526,2018-037A,2026-06-30T16:23:42.630720,1.00282126,.00003183,0.0324,68.9170,293.2676,290.5648,0,U,43432,999,3009,0,-.333E-5,0
APSTAR-6C,2018-041A,2026-06-30T16:25:27.464160,1.00270860,.0000393,0.0446,304.3996,88.0346,266.6778,0,U,43450,999,2994,0,-.307E-5,0
BANGABANDHUSAT-1,2018-044A,2026-07-01T23:08:55.549248,1.00274182,.00020726,0.0252,88.2885,12.5906,285.4573,0,U,43463,999,2985,0,-.352E-5,0
SES-12,2018-049A,2026-07-01T18:55:21.326592,1.00272306,.0000379,0.0107,10.1297,259.6240,28.9230,0,U,43488,999,2956,0,-.259E-5,0
FENGYUN 2H,2018-050A,2026-07-01T22:57:41.625792,1.00269567,.00017681,3.0678,78.9082,121.3970,143.4229,0,U,43491,999,2958,0,-.12E-5,0
BEIDOU-2 IGSO-7,2018-057A,2026-07-01T21:23:21.693984,1.00246939,.01049468,55.1981,162.9292,237.8611,308.6338,0,U,43539,999,2927,0,-.33E-6,0
TELSTAR 19V,2018-059A,2026-07-01T22:17:00.913056,1.00270400,.00031026,0.0278,138.5084,341.7925,70.9219,0,U,43562,999,2929,0,-.269E-5,0
TELKOM 4 (MERAH PUTIH),2018-064A,2026-07-01T22:34:26.416128,1.00271047,.00017749,0.0167,331.0521,158.4862,237.0531,0,U,43587,999,2902,0,-.333E-5,0
TELSTAR 18V,2018-069A,2026-06-30T23:17:10.533984,1.00273522,.00022156,0.0175,302.5030,152.1071,311.7084,0,U,43611,999,2877,0,-.283E-5,0
AZERSPACE 2 (IS-38),2018-074A,2026-07-01T21:05:12.476832,1.00270392,.00016217,0.0251,37.4253,69.9767,173.9332,0,U,43632,999,2859,0,0,0
HORIZONS-3E,2018-074B,2026-07-01T16:32:36.172320,1.00271639,.00005646,0.0225,196.8409,90.6373,49.4249,0,U,43633,999,2848,0,-.2E-6,0
AEHF-4 (USA 288),2018-079A,2026-07-01T22:59:20.537376,1.00268100,.00598167,1.4366,5.1742,355.5887,196.4950,0,U,43651,999,2844,0,-.264E-5,0
BEIDOU-3 G1,2018-085A,2026-07-01T21:37:58.311840,1.00271059,.00085597,2.9042,96.9835,353.1135,314.2609,0,U,43683,999,2820,0,-.101E-5,0
